<?xml version="1.0" encoding="UTF-8"?>
<ndm xmlns:xsi="http://www.w3.org/2001/XMLSchema-instance" xsi:noNamespaceSchemaLocation="https://sanaregistry.org/r/ndmxml_unqualified/ndmxml-2.0.0-master-2.0.xsd">
<omm id="CCSDS_OMM_VERS" version="2.0">
<header><CREATION_DATE/><ORIGINATOR/></header><body><segment><metadata><OBJECT_NAME>ONEWEB-0706</OBJECT_NAME><OBJECT_ID>2024-188T</OBJECT_ID><CENTER_NAME>EARTH</CENTER_NAME><REF_FRAME>TEME</REF_FRAME><TIME_SYSTEM>UTC</TIME_SYSTEM><MEAN_ELEMENT_THEORY>SGP4</MEAN_ELEMENT_THEORY></metadata><data><meanElements><EPOCH>2025-03-10T13:16:19.473024</EPOCH><MEAN_MOTION>13.23000893</MEAN_MOTION><ECCENTRICITY>.0001402</ECCENTRICITY><INCLINATION>87.9337</INCLINATION><RA_OF_ASC_NODE>128.6770</RA_OF_ASC_NODE><ARG_OF_PERICENTER>135.0017</ARG_OF_PERICENTER><MEAN_ANOMALY>225.1231</MEAN_ANOMALY></meanElements><tleParameters><EPHEMERIS_TYPE>0</EPHEMERIS_TYPE><CLASSIFICATION_TYPE>U</CLASSIFICATION_TYPE><NORAD_CAT_ID>61611</NORAD_CAT_ID><ELEMENT_SET_NO>999</ELEMENT_SET_NO><REV_AT_EPOCH>2262</REV_AT_EPOCH><BSTAR>.11865E-3</BSTAR><MEAN_MOTION_DOT>.63E-6</MEAN_MOTION_DOT><MEAN_MOTION_DDOT>0</MEAN_MOTION_DDOT></tleParameters></data></segment></body></omm>
<omm id="CCSDS_OMM_VERS" version="2.0">
<header><CREATION_DATE/><ORIGINATOR/></header><body><segment><metadata><OBJECT_NAME>ONEWEB-0707</OBJECT_NAME><OBJECT_ID>2024-188U</OBJECT_ID><CENTER_NAME>EARTH</CENTER_NAME><REF_FRAME>TEME</REF_FRAME><TIME_SYSTEM>UTC</TIME_SYSTEM><MEAN_ELEMENT_THEORY>SGP4</MEAN_ELEMENT_THEORY></metadata><data><meanElements><EPOCH>2025-03-10T13:49:38.449344</EPOCH><MEAN_MOTION>13.10373520</MEAN_MOTION><ECCENTRICITY>.0001475</ECCENTRICITY><INCLINATION>87.8850</INCLINATION><RA_OF_ASC_NODE>128.6624</RA_OF_ASC_NODE><ARG_OF_PERICENTER>81.7518</ARG_OF_PERICENTER><MEAN_ANOMALY>278.3777</MEAN_ANOMALY></meanElements><tleParameters><EPHEMERIS_TYPE>0</EPHEMERIS_TYPE><CLASSIFICATION_TYPE>U</CLASSIFICATION_TYPE><NORAD_CAT_ID>61612</NORAD_CAT_ID><ELEMENT_SET_NO>999</ELEMENT_SET_NO><REV_AT_EPOCH>2260</REV_AT_EPOCH><BSTAR>-.93818E-3</BSTAR><MEAN_MOTION_DOT>-.315E-5</MEAN_MOTION_DOT><MEAN_MOTION_DDOT>0</MEAN_MOTION_DDOT></tleParameters></data></segment></body></omm>
<omm id="CCSDS_OMM_VERS" version="2.0">
<header><CREATION_DATE/><ORIGINATOR/></header><body><segment><metadata><OBJECT_NAME>ONEWEB-0708</OBJECT_NAME><OBJECT_ID>2024-188V</OBJECT_ID><CENTER_NAME>EARTH</CENTER_NAME><REF_FRAME>TEME</REF_FRAME><TIME_SYSTEM>UTC</TIME_SYSTEM><MEAN_ELEMENT_THEORY>SGP4</MEAN_ELEMENT_THEORY></metadata><data><meanElements><EPOCH>2025-03-10T14:15:54.988416</EPOCH><MEAN_MOTION>13.10381968</MEAN_MOTION><ECCENTRICITY>.0001216</ECCENTRICITY><INCLINATION>87.8910</INCLINATION><RA_OF_ASC_NODE>128.6133</RA_OF_ASC_NODE><ARG_OF_PERICENTER>93.8349</ARG_OF_PERICENTER><MEAN_ANOMALY>266.2918</MEAN_ANOMALY></meanElements><tleParameters><EPHEMERIS_TYPE>0</EPHEMERIS_TYPE><CLASSIFICATION_TYPE>U</CLASSIFICATION_TYPE><NORAD_CAT_ID>61613</NORAD_CAT_ID><ELEMENT_SET_NO>999</ELEMENT_SET_NO><REV_AT_EPOCH>2258</REV_AT_EPOCH><BSTAR>.86037E-3</BSTAR><MEAN_MOTION_DOT>.313E-5</MEAN_MOTION_DOT><MEAN_MOTION_DDOT>0</MEAN_MOTION_DDOT></tleParameters></data></segment></body></omm>
</ndm>
