ONEWEB-0706             
1 61611U 24188T   25069.55300316  .00000063  00000+0  11865-3 0  9995
2 61611  87.9337 128.6770 0001402 135.0017 225.1231 13.23000893 22626
ONEWEB-0707             
1 61612U 24188U   25069.57613946 -.00000315  00000+0 -93818-3 0  9994
2 61612  87.8850 128.6624 0001475  81.7518 278.3777 13.10373520 22606
ONEWEB-0708             
1 61613U 24188V   25069.59438644  .00000313  00000+0  86037-3 0  9998
2 61613  87.8910 128.6133 0001216  93.8349 266.2918 13.10381968 22583
